{"type": "FeatureCollection", "features": [ {"type": "Feature", "properties": {"norad_id": 43565, "name": "GSAT0222 (GALILEO 26)", "group": "gnss", "lat": 21.4204296253837, "lon": 1.5333741140667205, "alt_km": 23229.465664102612, "timestamp": "2025-12-09T20:37:09.529367+00:00", "meta": {"OBJECT_NAME": "GSAT0222 (GALILEO 26)", "OBJECT_ID": "2018-060B", "EPOCH": "2025-12-09T05:32:02.497344", "MEAN_MOTION": 1.7047545, "ECCENTRICITY": 0.00061659, "INCLINATION": 57.2321, "RA_OF_ASC_NODE": 346.9153, "ARG_OF_PERICENTER": 262.6798, "MEAN_ANOMALY": 97.2666, "EPHEMERIS_TYPE": 0, "CLASSIFICATION_TYPE": "U", "NORAD_CAT_ID": 43565, "ELEMENT_SET_NO": 999, "REV_AT_EPOCH": 4597, "BSTAR": 0, "MEAN_MOTION_DOT": -8.7e-07, "MEAN_MOTION_DDOT": 0}, "tle": {"line1": "1 43565U 18060B   25343.23058446 -.00000087  00000+0  00000+0 0  9991", "line2": "2 43565  57.2321 346.9153 0006165 262.6798  97.2666  1.70475450 45978"}}, "geometry": {"type": "Point", "coordinates": [1.5333741140667205, 21.4204296253837]}}, {"type": "Feature", "properties": {"norad_id": 43566, "name": "GSAT0219 (GALILEO 23)", "group": "gnss", "lat": -52.16629545705465, "lon": -137.06245488671422, "alt_km": 23213.853938672164, "timestamp": "2025-12-09T20:37:09.529378+00:00", "meta": {"OBJECT_NAME": "GSAT0219 (GALILEO 23)", "OBJECT_ID": "2018-060C", "EPOCH": "2025-12-07T16:36:27.181728", "MEAN_MOTION": 1.7047564, "ECCENTRICITY": 0.00057893, "INCLINATION": 57.2316, "RA_OF_ASC_NODE": 346.9585, "ARG_OF_PERICENTER": 285.9629, "MEAN_ANOMALY": 73.992, "EPHEMERIS_TYPE": 0, "CLASSIFICATION_TYPE": "U", "NORAD_CAT_ID": 43566, "ELEMENT_SET_NO": 999, "REV_AT_EPOCH": 4592, "BSTAR": 0, "MEAN_MOTION_DOT": -8.4e-07, "MEAN_MOTION_DDOT": 0}, "tle": {"line1": "1 43566U 18060C   25341.69198127 -.00000084  00000+0  00000+0 0  9998", "line2": "2 43566  57.2316 346.9585 0005789 285.9629  73.9920  1.70475640 45924"}}, "geometry": {"type": "Point", "coordinates": [-137.06245488671422, -52.16629545705465]}}, {"type": "Feature", "properties": {"norad_id": 43567, "name": "GSAT0220 (GALILEO 24)", "group": "gnss", "lat": 49.96283958560951, "lon": 116.84199390747375, "alt_km": 23234.11643728763, "timestamp": "2025-12-09T20:37:09.529389+00:00", "meta": {"OBJECT_NAME": "GSAT0220 (GALILEO 24)", "OBJECT_ID": "2018-060D", "EPOCH": "2025-12-07T07:49:54.342624", "MEAN_MOTION": 1.70475454, "ECCENTRICITY": 0.00061757, "INCLINATION": 57.2312, "RA_OF_ASC_NODE": 346.9681, "ARG_OF_PERICENTER": 282.9528, "MEAN_ANOMALY": 76.9979, "EPHEMERIS_TYPE": 0, "CLASSIFICATION_TYPE": "U", "NORAD_CAT_ID": 43567, "ELEMENT_SET_NO": 999, "REV_AT_EPOCH": 4590, "BSTAR": 0, "MEAN_MOTION_DOT": -8.3e-07, "MEAN_MOTION_DDOT": 0}, "tle": {"line1": "1 43567U 18060D   25341.32632341 -.00000083  00000+0  00000+0 0  9999", "line2": "2 43567  57.2312 346.9681 0006175 282.9528  76.9979  1.70475454 45901"}}, "geometry": {"type": "Point", "coordinates": [116.84199390747375, 49.96283958560951]}}, {"type": "Feature", "properties": {"norad_id": 43581, "name": "BEIDOU-3 M5 (C23)", "group": "gnss", "lat": -15.607243257634627, "lon": 20.428876295141436, "alt_km": 21535.801445377958, "timestamp": "2025-12-09T20:37:09.529401+00:00", "meta": {"OBJECT_NAME": "BEIDOU-3 M5 (C23)", "OBJECT_ID": "2018-062A", "EPOCH": "2025-12-07T09:56:06.099936", "MEAN_MOTION": 1.86228656, "ECCENTRICITY": 0.00021227, "INCLINATION": 54.0892, "RA_OF_ASC_NODE": 188.8244, "ARG_OF_PERICENTER": 353.0314, "MEAN_ANOMALY": 7.0363, "EPHEMERIS_TYPE": 0, "CLASSIFICATION_TYPE": "U", "NORAD_CAT_ID": 43581, "ELEMENT_SET_NO": 999, "REV_AT_EPOCH": 5006, "BSTAR": 0, "MEAN_MOTION_DOT": 5.9e-07, "MEAN_MOTION_DDOT": 0}, "tle": {"line1": "1 43581U 18062A   25341.41395949  .00000059  00000+0  00000+0 0  9999", "line2": "2 43581  54.0892 188.8244 0002122 353.0314   7.0363  1.86228656 50066"}}, "geometry": {"type": "Point", "coordinates": [20.428876295141436, -15.607243257634627]}}, {"type": "Feature", "properties": {"norad_id": 43582, "name": "BEIDOU-3 M6 (C24)", "group": "gnss", "lat": -49.031849176487576, "lon": 132.14861144498695, "alt_km": 21542.86174003626, "timestamp": "2025-12-09T20:37:09.529412+00:00", "meta": {"OBJECT_NAME": "BEIDOU-3 M6 (C24)", "OBJECT_ID": "2018-062B", "EPOCH": "2025-12-07T19:32:10.570272", "MEAN_MOTION": 1.86229692, "ECCENTRICITY": 0.00077761, "INCLINATION": 54.0886, "RA_OF_ASC_NODE": 188.7999, "ARG_OF_PERICENTER": 46.2812, "MEAN_ANOMALY": 313.8511, "EPHEMERIS_TYPE": 0, "CLASSIFICATION_TYPE": "U", "NORAD_CAT_ID": 43582, "ELEMENT_SET_NO": 999, "REV_AT_EPOCH": 5007, "BSTAR": 0, "MEAN_MOTION_DOT": 5.5e-07, "MEAN_MOTION_DDOT": 0}, "tle": {"line1": "1 43582U 18062B   25341.81401123  .00000055  00000+0  00000+0 0  9992", "line2": "2 43582  54.0886 188.7999 0007776  46.2812 313.8511  1.86229692 50075"}}, "geometry": {"type": "Point", "coordinates": [132.14861144498695, -49.031849176487576]}}, {"type": "Feature", "properties": {"norad_id": 43602, "name": "BEIDOU-3 M12 (C26)", "group": "gnss", "lat": -21.716023252464844, "lon": 170.74812390489325, "alt_km": 21521.697942020877, "timestamp": "2025-12-09T20:37:09.529425+00:00", "meta": {"OBJECT_NAME": "BEIDOU-3 M12 (C26)", "OBJECT_ID": "2018-067A", "EPOCH": "2025-12-07T18:02:34.116000", "MEAN_MOTION": 1.86227677, "ECCENTRICITY": 0.00091651, "INCLINATION": 54.1832, "RA_OF_ASC_NODE": 187.5325, "ARG_OF_PERICENTER": 40.8071, "MEAN_ANOMALY": 319.3279, "EPHEMERIS_TYPE": 0, "CLASSIFICATION_TYPE": "U", "NORAD_CAT_ID": 43602, "ELEMENT_SET_NO": 999, "REV_AT_EPOCH": 4955, "BSTAR": 0, "MEAN_MOTION_DOT": 5.6e-07, "MEAN_MOTION_DDOT": 0}, "tle": {"line1": "1 43602U 18067A   25341.75178375  .00000056  00000+0  00000+0 0  9994", "line2": "2 43602  54.1832 187.5325 0009165  40.8071 319.3279  1.86227677 49555"}}, "geometry": {"type": "Point", "coordinates": [170.74812390489325, -21.716023252464844]}}, {"type": "Feature", "properties": {"norad_id": 43603, "name": "BEIDOU-3 M11 (C25)", "group": "gnss", "lat": -46.102599345311916, "lon": 56.085912353726386, "alt_km": 21547.68752580404, "timestamp": "2025-12-09T20:37:09.529436+00:00", "meta": {"OBJECT_NAME": "BEIDOU-3 M11 (C25)", "OBJECT_ID": "2018-067B", "EPOCH": "2025-12-07T08:23:01.607424", "MEAN_MOTION": 1.86227152, "ECCENTRICITY": 0.0005581, "INCLINATION": 54.1802, "RA_OF_ASC_NODE": 187.5102, "ARG_OF_PERICENTER": 36.6822, "MEAN_ANOMALY": 323.425, "EPHEMERIS_TYPE": 0, "CLASSIFICATION_TYPE": "U", "NORAD_CAT_ID": 43603, "ELEMENT_SET_NO": 999, "REV_AT_EPOCH": 4957, "BSTAR": 0, "MEAN_MOTION_DOT": 6e-07, "MEAN_MOTION_DDOT": 0}, "tle": {"line1": "1 43603U 18067B   25341.34932416  .00000060  00000+0  00000+0 0  9999", "line2": "2 43603  54.1802 187.5102 0005581  36.6822 323.4250  1.86227152 49576"}}, "geometry": {"type": "Point", "coordinates": [56.085912353726386, -46.102599345311916]}}, {"type": "Feature", "properties": {"norad_id": 43622, "name": "BEIDOU-3 M13 (C32)", "group": "gnss", "lat": -56.434891334973614, "lon": -17.872966142933166, "alt_km": 21520.17900798821, "timestamp": "2025-12-09T20:37:09.529447+00:00", "meta": {"OBJECT_NAME": "BEIDOU-3 M13 (C32)", "OBJECT_ID": "2018-072A", "EPOCH": "2025-12-09T10:53:18.929184", "MEAN_MOTION": 1.86230678, "ECCENTRICITY": 0.00056167, "INCLINATION": 56.4562, "RA_OF_ASC_NODE": 68.9299, "ARG_OF_PERICENTER": 299.0719, "MEAN_ANOMALY": 60.8948, "EPHEMERIS_TYPE": 0, "CLASSIFICATION_TYPE": "U", "NORAD_CAT_ID": 43622, "ELEMENT_SET_NO": 999, "REV_AT_EPOCH": 4912, "BSTAR": 0, "MEAN_MOTION_DOT": -4.9e-07, "MEAN_MOTION_DDOT": 0}, "tle": {"line1": "1 43622U 18072A   25343.45369131 -.00000049  00000+0  00000+0 0  9996", "line2": "2 43622  56.4562  68.9299 0005616 299.0719  60.8948  1.86230678 49127"}}, "geometry": {"type": "Point", "coordinates": [-17.872966142933166, -56.434891334973614]}}, {"type": "Feature", "properties": {"norad_id": 43623, "name": "BEIDOU-3 M14 (C33)", "group": "gnss", "lat": 1.6905711897397326, "lon": 70.03947454921601, "alt_km": 21520.155915727653, "timestamp": "2025-12-09T20:37:09.529461+00:00", "meta": {"OBJECT_NAME": "BEIDOU-3 M14 (C33)", "OBJECT_ID": "2018-072B", "EPOCH": "2025-12-09T07:39:35.322912", "MEAN_MOTION": 1.86230627, "ECCENTRICITY": 0.0003205, "INCLINATION": 56.458, "RA_OF_ASC_NODE": 68.9278, "ARG_OF_PERICENTER": 335.7988, "MEAN_ANOMALY": 24.209, "EPHEMERIS_TYPE": 0, "CLASSIFICATION_TYPE": "U", "NORAD_CAT_ID": 43623, "ELEMENT_SET_NO": 999, "REV_AT_EPOCH": 4911, "BSTAR": 0, "MEAN_MOTION_DOT": -4.8e-07, "MEAN_MOTION_DDOT": 0}, "tle": {"line1": "1 43623U 18072B   25343.31915883 -.00000048  00000+0  00000+0 0  9992", "line2": "2 43623  56.4580  68.9278 0003205 335.7988  24.2090  1.86230627 49118"}}, "geometry": {"type": "Point", "coordinates": [70.03947454921601, 1.6905711897397326]}}, {"type": "Feature", "properties": {"norad_id": 43647, "name": "BEIDOU-3 M16 (C35)", "group": "gnss", "lat": -52.02311539852353, "lon": -166.2346536002741, "alt_km": 21544.329048923566, "timestamp": "2025-12-09T20:37:09.529472+00:00", "meta": {"OBJECT_NAME": "BEIDOU-3 M16 (C35)", "OBJECT_ID": "2018-078A", "EPOCH": "2025-12-08T22:33:41.935680", "MEAN_MOTION": 1.86232209, "ECCENTRICITY": 0.0007116, "INCLINATION": 54.2656, "RA_OF_ASC_NODE": 306.6541, "ARG_OF_PERICENTER": 19.0293, "MEAN_ANOMALY": 340.9862, "EPHEMERIS_TYPE": 0, "CLASSIFICATION_TYPE": "U", "NORAD_CAT_ID": 43647, "ELEMENT_SET_NO": 999, "REV_AT_EPOCH": 4861, "BSTAR": 0, "MEAN_MOTION_DOT": -7.5e-07, "MEAN_MOTION_DDOT": 0}, "tle": {"line1": "1 43647U 18078A   25342.94006870 -.00000075  00000+0  00000+0 0  9999", "line2": "2 43647  54.2656 306.6541 0007116  19.0293 340.9862  1.86232209 48612"}}, "geometry": {"type": "Point", "coordinates": [-166.2346536002741, -52.02311539852353]}}]}